SHIYAN-1 (SY-1)         
1 28220U 04012A   26068.73650539  .00016393  00000+0  54854-3 0  9991
2 28220  97.8764 140.5238 0005873  23.6952 336.4557 15.31043463195862
STARLINK-35264          
1 65900U 25224U   26068.26540740  .00039593  00000+0  13421-2 0  9996
2 65900  53.1603  13.0061 0001243  64.3975 295.7154 15.30192029 24804
